H1 CPF 01  gfz 2021 08 16 12  7282 terrasarx 
H2 0702601  6201 31698    2021 08 16 12 59 42 2021 08 21 00 00 42   120 1 1  0 0 0
H9
10 0 59445  85662.000000  0     192253.020   5591184.185  -4027817.210
10 0 59445  85782.000000  0     361496.876   5010615.720  -4721363.103
10 0 59445  85902.000000  0     513510.914   4340130.504  -5332250.221
10 0 59445  86022.000000  0     644193.930   3591800.949  -5849879.677
10 0 59445  86142.000000  0     750042.626   2779086.609  -6265295.333
10 0 59445  86262.000000  0     828232.055   1916586.332  -6571327.299
10 0 59445  86382.000000  0     876679.960   1019775.137  -6762704.044
10 0 59446    102.000000  0     894093.403    104729.058  -6836134.236
10 0 59446    222.000000  0     879997.846   -812158.298  -6790357.237
10 0 59446    342.000000  0     834747.437  -1714463.052  -6626160.816
10 0 59446    462.000000  0     759517.342  -2586016.443  -6346368.168
10 0 59446    582.000000  0     656278.255  -3411187.943  -5955797.106
10 0 59446    702.000000  0     527751.859  -4175164.058  -5461186.057
10 0 59446    822.000000  0     377349.779  -4864214.014  -4871087.529
10 0 59446    942.000000  0     209095.992  -5465940.440  -4195732.140
10 0 59446   1062.000000  0      27533.525  -5969510.769  -3446861.712
10 0 59446   1182.000000  0    -162382.380  -6365862.720  -2637532.898
10 0 59446   1302.000000  0    -355402.599  -6647880.049  -1781895.119
10 0 59446   1422.000000  0    -546111.466  -6810533.926   -894943.814
10 0 59446   1542.000000  0    -729059.969  -6850983.732      7745.749
10 0 59446   1662.000000  0    -898901.560  -6768634.895    910297.731
10 0 59446   1782.000000  0   -1050527.397  -6565152.778   1796822.533
10 0 59446   1902.000000  0   -1179197.296  -6244430.790   2651705.979
10 0 59446   2022.000000  0   -1280662.646  -5812513.026   3459893.410
10 0 59446   2142.000000  0   -1351277.455  -5277473.211   4207162.172
10 0 59446   2262.000000  0   -1388095.866  -4649253.943   4880374.624
10 0 59446   2382.000000  0   -1388953.814  -3939473.382   5467709.632
10 0 59446   2502.000000  0   -1352533.155  -3161200.733   5958869.702
10 0 59446   2622.000000  0   -1278405.803  -2328705.543   6345256.550
10 0 59446   2742.000000  0   -1167057.293  -1457190.652   6620114.192
10 0 59446   2862.000000  0   -1019891.075   -562512.040   6778641.618
10 0 59446   2982.000000  0    -839213.436    339111.434   6818071.492
10 0 59446   3102.000000  0    -628197.845   1231391.455   6737715.534
10 0 59446   3222.000000  0    -390828.891   2098264.127   6538976.134
10 0 59446   3342.000000  0    -131827.323   2924178.837   6225323.249
10 0 59446   3462.000000  0     143442.281   3694377.486   5802237.624
10 0 59446   3582.000000  0     429079.479   4395161.045   5277120.449
10 0 59446   3702.000000  0     718770.858   5014137.904   4659170.154
10 0 59446   3822.000000  0    1005925.463   5540450.842   3959226.310
10 0 59446   3942.000000  0    1283817.738   5964974.423   3189583.480
10 0 59446   4062.000000  0    1545740.484   6280486.195   2363780.039
10 0 59446   4182.000000  0    1785159.639   6481799.348   1496353.981
10 0 59446   4302.000000  0    1995867.136   6565854.160    602581.858
10 0 59446   4422.000000  0    2172129.763   6531766.340   -301798.179
10 0 59446   4542.000000  0    2308828.592   6380832.038  -1200871.325
10 0 59446   4662.000000  0    2401586.566   6116489.733  -2078834.021
10 0 59446   4782.000000  0    2446881.093   5744239.844  -2920278.814
10 0 59446   4902.000000  0    2442138.530   5271523.786  -3710470.464
10 0 59446   5022.000000  0    2385808.091   4707564.880  -4435606.472
10 0 59446   5142.000000  0    2277413.201   4063177.302  -5083055.805
10 0 59446   5262.000000  0    2117580.357   3350548.962  -5641572.492
10 0 59446   5382.000000  0    1908045.478   2583003.755  -6101482.327
10 0 59446   5502.000000  0    1651637.220   1774747.244  -6454839.694
10 0 59446   5622.000000  0    1352239.059    940602.841  -6695552.702
10 0 59446   5742.000000  0    1014730.800     95742.440  -6819478.599
10 0 59446   5862.000000  0     644908.765   -744585.199  -6824487.580
10 0 59446   5982.000000  0     249387.399  -1565323.783  -6710493.868
10 0 59446   6102.000000  0    -164515.654  -2351871.186  -6479456.193
10 0 59446   6222.000000  0    -588910.989  -3090333.193  -6135349.801
10 0 59446   6342.000000  0   -1015483.850  -3767766.607  -5684105.050
10 0 59446   6462.000000  0   -1435652.007  -4372405.145  -5133515.220
10 0 59446   6582.000000  0   -1840734.229  -4893867.594  -4493114.105
10 0 59446   6702.000000  0   -2222126.582  -5323343.356  -3774021.765
10 0 59446   6822.000000  0   -2571482.631  -5653750.360  -2988760.306
10 0 59446   6942.000000  0   -2880893.488  -5879862.149  -2151042.435
10 0 59446   7062.000000  0   -3143064.158  -5998401.473  -1275535.288
10 0 59446   7182.000000  0   -3351481.836  -6008096.844   -377602.191
10 0 59446   7302.000000  0   -3500570.707  -5909698.550    526972.453
10 0 59446   7422.000000  0   -3585829.271  -5705953.918   1422268.185
10 0 59446   7542.000000  0   -3603946.872  -5401541.970   2292517.988
10 0 59446   7662.000000  0   -3552895.685  -5002968.366   3122394.859
10 0 59446   7782.000000  0   -3431996.234  -4518424.768   3897288.884
10 0 59446   7902.000000  0   -3241954.944  -3957615.906   4603569.777
10 0 59446   8022.000000  0   -2984872.951  -3331558.175   5228828.831
10 0 59446   8142.000000  0   -2664226.331  -2652356.094   5762095.706
10 0 59446   8262.000000  0   -2284818.089  -1932962.584   6194027.053
10 0 59446   8382.000000  0   -1852704.037  -1186928.235   6517065.965
10 0 59446   8502.000000  0   -1375092.414   -428141.909   6725569.525
10 0 59446   8622.000000  0    -860221.025    329429.621   6815898.869
10 0 59446   8742.000000  0    -317215.579   1071997.014   6786478.538
10 0 59446   8862.000000  0     244071.884   1786198.947   6637822.947
10 0 59446   8982.000000  0     813241.527   2459342.496   6372527.963
10 0 59446   9102.000000  0    1379537.752   3079628.436   5995227.783
10 0 59446   9222.000000  0    1932051.386   3636359.442   5512519.390
10 0 59446   9342.000000  0    2459929.605   4120128.680   4932853.751
10 0 59446   9462.000000  0    2952590.980   4522984.423   4266393.388
10 0 59446   9582.000000  0    3399938.781   4838565.735   3524838.097
10 0 59446   9702.000000  0    3792569.941   5062209.763   2721224.603
10 0 59446   9822.000000  0    4121977.884   5191027.502   1869695.261
10 0 59446   9942.000000  0    4380735.838   5223939.279    985244.177
10 0 59446  10062.000000  0    4562663.239   5161678.592     83448.367
10 0 59446  10182.000000  0    4662967.284   5006756.295   -819817.187
10 0 59446  10302.000000  0    4678356.662   4763387.111  -1708666.836
10 0 59446  10422.000000  0    4607125.680   4437383.862  -2567490.988
10 0 59446  10542.000000  0    4449206.054   4036020.742  -3381236.426
10 0 59446  10662.000000  0    4206184.620   3567869.027  -4135673.883
10 0 59446  10782.000000  0    3881287.508   3042609.950  -4817645.853
10 0 59446  10902.000000  0    3479333.276   2470830.271  -5415291.778
10 0 59446  11022.000000  0    3006655.199   1863805.543  -5918247.269
10 0 59446  11142.000000  0    2470995.027   1233275.517  -6317813.680
10 0 59446  11262.000000  0    1881371.239    591217.300  -6607096.538
10 0 59446  11382.000000  0    1247926.017    -50378.981  -6781112.753
10 0 59446  11502.000000  0     581751.946   -679729.793  -6836869.197
10 0 59446  11622.000000  0    -105300.473  -1285470.212  -6773407.422
10 0 59446  11742.000000  0    -800828.076  -1856853.085  -6591817.189
10 0 59446  11862.000000  0   -1492093.296  -2383934.967  -6295221.039
10 0 59446  11982.000000  0   -2166252.312  -2857747.016  -5888726.220
10 0 59446  12102.000000  0   -2810588.474  -3270446.578  -5379345.774
10 0 59446  12222.000000  0   -3412750.002  -3615449.380  -4775890.020
10 0 59446  12342.000000  0   -3960988.072  -3887539.195  -4088825.150
10 0 59446  12462.000000  0   -4444388.660  -4082951.432  -3330101.547
10 0 59446  12582.000000  0   -4853094.781  -4199429.778  -2512953.851
10 0 59446  12702.000000  0   -5178513.450  -4236253.529  -1651674.062
10 0 59446  12822.000000  0   -5413501.911  -4194234.139   -761362.059
10 0 59446  12942.000000  0   -5552528.381  -4075681.008    142342.069
10 0 59446  13062.000000  0   -5591803.027  -3884336.932   1043539.028
10 0 59446  13182.000000  0   -5529374.252  -3625283.871   1926359.604
10 0 59446  13302.000000  0   -5365186.951  -3304820.245   2775253.716
10 0 59446  13422.000000  0   -5101102.331  -2930314.593   3575272.156
10 0 59446  13542.000000  0   -4740879.112  -2510039.419   4312336.494
10 0 59446  13662.000000  0   -4290115.589  -2052988.228   4973490.689
10 0 59446  13782.000000  0   -3756155.822  -1568682.308   5547127.731
10 0 59446  13902.000000  0   -3147963.930  -1066972.253   6023190.778
10 0 59446  14022.000000  0   -2475967.024   -557836.567   6393346.594
10 0 59446  14142.000000  0   -1751869.344    -51181.739   6651125.664
10 0 59446  14262.000000  0    -988443.809    443349.591   6792027.566
10 0 59446  14382.000000  0    -199305.627    916560.327   6813594.463
10 0 59446  14502.000000  0     601330.238   1359869.167   6715451.259
10 0 59446  14622.000000  0    1398904.312   1765466.200   6499311.918
10 0 59446  14742.000000  0    2178776.596   2126450.662   6168950.763
10 0 59446  14862.000000  0    2926494.568   2436948.600   5730141.059
10 0 59446  14982.000000  0    3628063.020   2692210.031   5190560.718
10 0 59446  15102.000000  0    4270209.551   2888683.277   4559663.400
10 0 59446  15222.000000  0    4840639.608   3024065.248   3848518.644
10 0 59446  15342.000000  0    5328280.841   3097326.863   3069622.705
10 0 59446  15462.000000  0    5723506.491   3108710.248   2236677.070
10 0 59446  15582.000000  0    6018331.457   3059700.597   1364346.158
10 0 59446  15702.000000  0    6206580.162   2952972.479    467993.667
99
